STARLINK-5757           
1 55580U 23020M   26180.98956292 -.00000003  00000+0  94185-5 0  9992
2 55580  43.0039  65.3385 0001380 277.8525  82.2170 15.27575019186380
STARLINK-5753           
1 55581U 23020N   26180.83801262  .00000818  00000+0  39263-4 0  9991
2 55581  43.0043  98.7359 0001529 277.0985  82.9692 15.27577315185986
STARLINK-5741           
1 55582U 23020P   26181.57370874 -.00001974  00000+0 -62245-4 0  9996
2 55582  43.0054  76.7119 0001634 266.0532  94.0133 15.27558150186309
STARLINK-5742           
1 55583U 23020Q   26180.80687516  .00000135  00000+0  14415-4 0  9998
2 55583  43.0025  91.6832 0001237 258.2585 101.8128 15.27575049186066
STARLINK-5736           
1 55584U 23020R   26181.06214056  .00000081  00000+0  12464-4 0  9995
2 55584  43.0038  91.0171 0001215 268.1811  91.8902 15.27578235186090
STARLINK-5769           
1 55585U 23020S   26181.00962473 -.00000023  00000+0  86836-5 0  9995
2 55585  43.0037  80.2235 0001138 248.8879 111.1851 15.27577081186215
STARLINK-5767           
1 55586U 23020T   26181.04543826 -.00000179  00000+0  30109-5 0  9991
2 55586  43.0028  90.8892 0001185 265.5582  94.5135 15.27576306186095
STARLINK-5727           
1 55587U 23020U   26180.77746121  .00001206  00000+0  53329-4 0  9993
2 55587  43.0012  92.2449 0001084 256.1923 103.8808 15.27585389186054
STARLINK-5728           
1 55588U 23020V   26181.04158308 -.00000462  00000+0 -72697-5 0  9994
2 55588  43.0013  90.8642 0001174 264.9033  95.1684 15.27576339186098
STARLINK-5697           
1 55589U 23020W   26181.03003452 -.00000196  00000+0  24037-5 0  9991
2 55589  43.0041  90.7768 0001390 267.2054  92.8638 15.27572098186098
STARLINK-5762           
1 55590U 23020X   26181.02359274  .00000515  00000+0  28240-4 0  9991
2 55590  43.0031  90.7322 0001564 272.3597  87.7076 15.27576963186091
STARLINK-5760           
1 55591U 23020Y   26181.23388666  .00000404  00000+0  24188-4 0  9996
2 55591  43.0020  89.7276 0001006 251.4380 108.6363 15.27579754186122
STARLINK-5759           
1 55592U 23020Z   26180.80944671  .00000687  00000+0  34488-4 0  9990
2 55592  43.0047  91.7021 0001454 268.5163  91.5523 15.27586633186063
STARLINK-5703           
1 55593U 23020AA  26180.80559070  .00000153  00000+0  15076-4 0  9996
2 55593  43.0041  91.6744 0001205 269.3666  90.7048 15.27576315186069
STARLINK-5750           
1 55594U 23020AB  26179.83250027  .00000556  00000+0  29735-4 0  9992
2 55594  43.0043  97.2705 0001556 264.5174  95.5500 15.27576832185914
STARLINK-5729           
1 55596U 23020AD  26181.01973466  .00001339  00000+0  58162-4 0  9992
2 55596  43.0023  90.6975 0001217 253.9101 106.1617 15.27583444186091
STARLINK-5743           
1 55597U 23020AE  26180.96336062 -.00006425  00000+0 -22399-3 0  9996
2 55597  43.0045  79.8793 0001942 251.1862 108.8779 15.27598759186219
STARLINK-5756           
1 55598U 23020AF  26180.80189373 -.00001956  00000+0 -61574-4 0  9994
2 55598  43.0006  81.2116 0001520 268.8833  91.1844 15.27570377186187
STARLINK-5761           
1 55599U 23020AG  26181.00191207 -.00000953  00000+0 -25095-4 0  9991
2 55599  43.0040  80.1383 0000977 250.0021 110.0726 15.27582749186217
STARLINK-5755           
1 55600U 23020AH  26180.97749373 -.00001693  00000+0 -52004-4 0  9994
2 55600  43.0044  79.9714 0001500 272.0314  88.0366 15.27572252186212
STARLINK-5744           
1 55601U 23020AJ  26180.80187629  .00000250  00000+0  18605-4 0  9992
2 55601  43.0052  92.4961 0001332 266.7752  93.2947 15.27577191186057
STARLINK-5764           
1 55602U 23020AK  26181.00576511  .00000118  00000+0  13805-4 0  9998
2 55602  43.0033  80.1658 0001115 257.0643 103.0085 15.27577687186216
STARLINK-5735           
1 55603U 23020AL  26180.71209583 -.00000416  00000+0 -55830-5 0  9996
2 55603  43.0031  81.4231 0001357 271.8408  88.2288 15.27577564186175
STARLINK-5748           
1 55604U 23020AM  26180.97800129 -.00000456  00000+0 -70561-5 0  9990
2 55604  43.0022  65.2590 0000931 253.1326 106.9423 15.27576833186383
STARLINK-5725           
1 55605U 23020AN  26180.78519229  .00000116  00000+0  13748-4 0  9992
2 55605  43.0043  81.1084 0001370 266.8378  93.2317 15.27577901186183
STARLINK-5700           
1 55607U 23020AQ  26180.99548452  .00001600  00000+0  67670-4 0  9999
2 55607  43.0033  80.1064 0001111 263.5662  96.5063 15.27578402186219
STARLINK-5726           
1 55608U 23020AR  26180.80317968  .00000257  00000+0  18865-4 0  9995
2 55608  43.0019  81.2371 0001522 256.4218 103.6464 15.27577522186184
STARLINK-5719           
1 55609U 23020AS  26180.99163086  .00000554  00000+0  29667-4 0  9998
2 55609  43.0053  80.0804 0001571 270.1915  89.8757 15.27577225186216
STARLINK-5722           
1 55610U 23020AT  26181.00704960  .00000232  00000+0  17961-4 0  9992
2 55610  43.0010  80.1830 0000921 251.1962 108.8790 15.27578705186213
STARLINK-5730           
1 55611U 23020AU  26181.01347445  .00000168  00000+0  15643-4 0  9998
2 55611  43.0038  80.2267 0001029 253.9271 106.1468 15.27577515186213
