OBJECT_NAME,OBJECT_ID,EPOCH,MEAN_MOTION,ECCENTRICITY,INCLINATION,RA_OF_ASC_NODE,ARG_OF_PERICENTER,MEAN_ANOMALY,EPHEMERIS_TYPE,CLASSIFICATION_TYPE,NORAD_CAT_ID,ELEMENT_SET_NO,REV_AT_EPOCH,BSTAR,MEAN_MOTION_DOT,MEAN_MOTION_DDOT
STARLINK-5757,2023-020M,2026-06-29T23:44:58.236288,15.27575019,.00013805,43.0039,65.3385,277.8525,82.2170,0,U,55580,999,18638,.9418518E-5,-.3E-7,0
STARLINK-5753,2023-020N,2026-06-29T20:06:44.290368,15.27577315,.00015299,43.0043,98.7359,277.0985,82.9692,0,U,55581,999,18598,.39263225E-4,.818E-5,0
STARLINK-5741,2023-020P,2026-06-30T13:46:08.435136,15.27558150,.00016344,43.0054,76.7119,266.0532,94.0133,0,U,55582,999,18630,-.62244915E-4,-.1974E-4,0
STARLINK-5742,2023-020Q,2026-06-29T19:21:54.013824,15.27575049,.00012377,43.0025,91.6832,258.2585,101.8128,0,U,55583,999,18606,.14415106E-4,.135E-5,0
STARLINK-5736,2023-020R,2026-06-30T01:29:28.944384,15.27578235,.00012153,43.0038,91.0171,268.1811,91.8902,0,U,55584,999,18609,.12463504E-4,.81E-6,0
STARLINK-5769,2023-020S,2026-06-30T00:13:51.576672,15.27577081,.00011383,43.0037,80.2235,248.8879,111.1851,0,U,55585,999,18621,.86836E-5,-.23E-6,0
STARLINK-5767,2023-020T,2026-06-30T01:05:25.865664,15.27576306,.00011851,43.0028,90.8892,265.5582,94.5135,0,U,55586,999,18609,.3010861E-5,-.179E-5,0
STARLINK-5727,2023-020U,2026-06-29T18:39:32.648544,15.27585389,.00010843,43.0012,92.2449,256.1923,103.8808,0,U,55587,999,18605,.53328994E-4,.1206E-4,0
STARLINK-5728,2023-020V,2026-06-30T00:59:52.778112,15.27576339,.00011746,43.0013,90.8642,264.9033,95.1684,0,U,55588,999,18609,-.726966E-5,-.462E-5,0
STARLINK-5697,2023-020W,2026-06-30T00:43:14.982528,15.27572098,.00013902,43.0041,90.7768,267.2054,92.8638,0,U,55589,999,18609,.2403742E-5,-.196E-5,0
STARLINK-5762,2023-020X,2026-06-30T00:33:58.412736,15.27576963,.00015641,43.0031,90.7322,272.3597,87.7076,0,U,55590,999,18609,.28239615E-4,.515E-5,0
STARLINK-5760,2023-020Y,2026-06-30T05:36:47.807424,15.27579754,.00010062,43.0020,89.7276,251.4380,108.6363,0,U,55591,999,18612,.24187824E-4,.404E-5,0
STARLINK-5759,2023-020Z,2026-06-29T19:25:36.195744,15.27586633,.0001454,43.0047,91.7021,268.5163,91.5523,0,U,55592,999,18606,.34488474E-4,.687E-5,0
STARLINK-5703,2023-020AA,2026-06-29T19:20:03.036480,15.27576315,.00012051,43.0041,91.6744,269.3666,90.7048,0,U,55593,999,18606,.15075598E-4,.153E-5,0
STARLINK-5750,2023-020AB,2026-06-28T19:58:48.023328,15.27576832,.00015563,43.0043,97.2705,264.5174,95.5500,0,U,55594,999,18591,.29734852E-4,.556E-5,0
STARLINK-5729,2023-020AD,2026-06-30T00:28:25.074624,15.27583444,.00012177,43.0023,90.6975,253.9101,106.1617,0,U,55596,999,18609,.58162051E-4,.1339E-4,0
STARLINK-5743,2023-020AE,2026-06-29T23:07:14.357568,15.27598759,.00019421,43.0045,79.8793,251.1862,108.8779,0,U,55597,999,18621,-.22399229E-3,-.6425E-4,0
STARLINK-5756,2023-020AF,2026-06-29T19:14:43.618272,15.27570377,.00015201,43.0006,81.2116,268.8833,91.1844,0,U,55598,999,18618,-.61574184E-4,-.1956E-4,0
STARLINK-5761,2023-020AG,2026-06-30T00:02:45.202848,15.27582749,.00009774,43.0040,80.1383,250.0021,110.0726,0,U,55599,999,18621,-.25094747E-4,-.953E-5,0
STARLINK-5755,2023-020AH,2026-06-29T23:27:35.458272,15.27572252,.00015004,43.0044,79.9714,272.0314,88.0366,0,U,55600,999,18621,-.52004215E-4,-.1693E-4,0
STARLINK-5744,2023-020AJ,2026-06-29T19:14:42.111456,15.27577191,.00013321,43.0052,92.4961,266.7752,93.2947,0,U,55601,999,18605,.18605381E-4,.25E-5,0
STARLINK-5764,2023-020AK,2026-06-30T00:08:18.105504,15.27577687,.00011157,43.0033,80.1658,257.0643,103.0085,0,U,55602,999,18621,.13805244E-4,.118E-5,0
STARLINK-5735,2023-020AL,2026-06-29T17:05:25.079712,15.27577564,.00013574,43.0031,81.4231,271.8408,88.2288,0,U,55603,999,18617,-.5582952E-5,-.416E-5,0
STARLINK-5748,2023-020AM,2026-06-29T23:28:19.311456,15.27576833,.00009319,43.0022,65.2590,253.1326,106.9423,0,U,55604,999,18638,-.7056113E-5,-.456E-5,0
STARLINK-5725,2023-020AN,2026-06-29T18:50:40.613856,15.27577901,.00013702,43.0043,81.1084,266.8378,93.2317,0,U,55605,999,18618,.1374812E-4,.116E-5,0
STARLINK-5700,2023-020AQ,2026-06-29T23:53:29.862528,15.27578402,.0001111,43.0033,80.1064,263.5662,96.5063,0,U,55607,999,18621,.67669947E-4,.16E-4,0
STARLINK-5726,2023-020AR,2026-06-29T19:16:34.724352,15.27577522,.00015224,43.0019,81.2371,256.4218,103.6464,0,U,55608,999,18618,.18865113E-4,.257E-5,0
STARLINK-5719,2023-020AS,2026-06-29T23:47:56.906304,15.27577225,.0001571,43.0053,80.0804,270.1915,89.8757,0,U,55609,999,18621,.29666766E-4,.554E-5,0
STARLINK-5722,2023-020AT,2026-06-30T00:10:09.085440,15.27578705,.00009211,43.0010,80.1830,251.1962,108.8790,0,U,55610,999,18621,.17961421E-4,.232E-5,0
STARLINK-5730,2023-020AU,2026-06-30T00:19:24.192480,15.27577515,.00010293,43.0038,80.2267,253.9271,106.1468,0,U,55611,999,18621,.15642731E-4,.168E-5,0
